{
  "type": "FeatureCollection",
  "features": [
    {
      "type": "Feature",
      "properties": {
        "norad_id": 29486,
        "name": "GPS BIIRM-2 (PRN 31)",
        "group": "gps-ops",
        "lat": 27.19948997034321,
        "lon": -42.893145710908186,
        "alt_km": 20195.415181082622,
        "timestamp": "2025-12-19T04:59:48.564824+00:00",
        "meta_object_name": "GPS BIIRM-2 (PRN 31)",
        "meta_object_id": "2006-042A",
        "meta_epoch": "2025-12-18T13:15:57.668256",
        "meta_mean_motion": 2.00553965,
        "meta_eccentricity": 0.01073199,
        "meta_inclination": 54.6948,
        "meta_ra_of_asc_node": 158.5101,
        "meta_arg_of_pericenter": 52.102,
        "meta_mean_anomaly": 339.2959,
        "meta_ephemeris_type": 0,
        "meta_classification_type": "U",
        "meta_norad_cat_id": 29486,
        "meta_element_set_no": 999,
        "meta_rev_at_epoch": 14077,
        "meta_bstar": 0,
        "meta_mean_motion_dot": 7.3e-07,
        "meta_mean_motion_ddot": 0,
        "tle_line1": "1 29486U 06042A   25352.55275079  .00000073  00000+0  00000+0 0  9996",
        "tle_line2": "2 29486  54.6948 158.5101 0107319  52.1020 339.2959  2.00553965140773"
      },
      "geometry": {
        "type": "Point",
        "coordinates": [
          -42.893145710908186,
          27.19948997034321
        ]
      }
    },
    {
      "type": "Feature",
      "properties": {
        "norad_id": 29601,
        "name": "GPS BIIRM-3 (PRN 12)",
        "group": "gps-ops",
        "lat": -19.151422805066733,
        "lon": 55.24637697548338,
        "alt_km": 20285.040045592792,
        "timestamp": "2025-12-19T04:59:48.564836+00:00",
        "meta_object_name": "GPS BIIRM-3 (PRN 12)",
        "meta_object_id": "2006-052A",
        "meta_epoch": "2025-12-17T22:21:49.359456",
        "meta_mean_motion": 2.00574035,
        "meta_eccentricity": 0.00878262,
        "meta_inclination": 54.9695,
        "meta_ra_of_asc_node": 221.1921,
        "meta_arg_of_pericenter": 87.4631,
        "meta_mean_anomaly": 273.6373,
        "meta_ephemeris_type": 0,
        "meta_classification_type": "U",
        "meta_norad_cat_id": 29601,
        "meta_element_set_no": 999,
        "meta_rev_at_epoch": 13977,
        "meta_bstar": 0,
        "meta_mean_motion_dot": 7.5e-07,
        "meta_mean_motion_ddot": 0,
        "tle_line1": "1 29601U 06052A   25351.93182129  .00000075  00000+0  00000+0 0  9992",
        "tle_line2": "2 29601  54.9695 221.1921 0087826  87.4631 273.6373  2.00574035139770"
      },
      "geometry": {
        "type": "Point",
        "coordinates": [
          55.24637697548338,
          -19.151422805066733
        ]
      }
    },
    {
      "type": "Feature",
      "properties": {
        "norad_id": 32260,
        "name": "GPS BIIRM-4 (PRN 15)",
        "group": "gps-ops",
        "lat": -15.500958498958418,
        "lon": 75.86101369708743,
        "alt_km": 20286.97427118948,
        "timestamp": "2025-12-19T04:59:48.564848+00:00",
        "meta_object_name": "GPS BIIRM-4 (PRN 15)",
        "meta_object_id": "2007-047A",
        "meta_epoch": "2025-12-18T05:42:28.689120",
        "meta_mean_motion": 2.0056436,
        "meta_eccentricity": 0.01640962,
        "meta_inclination": 53.959,
        "meta_ra_of_asc_node": 87.5314,
        "meta_arg_of_pericenter": 85.3192,
        "meta_mean_anomaly": 276.5459,
        "meta_ephemeris_type": 0,
        "meta_classification_type": "U",
        "meta_norad_cat_id": 32260,
        "meta_element_set_no": 999,
        "meta_rev_at_epoch": 13318,
        "meta_bstar": 0,
        "meta_mean_motion_dot": -4.8e-07,
        "meta_mean_motion_ddot": 0,
        "tle_line1": "1 32260U 07047A   25352.23783205 -.00000048  00000+0  00000+0 0  9999",
        "tle_line2": "2 32260  53.9590  87.5314 0164096  85.3192 276.5459  2.00564360133188"
      },
      "geometry": {
        "type": "Point",
        "coordinates": [
          75.86101369708743,
          -15.500958498958418
        ]
      }
    },
    {
      "type": "Feature",
      "properties": {
        "norad_id": 32384,
        "name": "GPS BIIRM-5 (PRN 29)",
        "group": "gps-ops",
        "lat": 49.700611699592166,
        "lon": 46.32748562264969,
        "alt_km": 20120.28296277277,
        "timestamp": "2025-12-19T04:59:48.564860+00:00",
        "meta_object_name": "GPS BIIRM-5 (PRN 29)",
        "meta_object_id": "2007-062A",
        "meta_epoch": "2025-12-18T19:12:42.092352",
        "meta_mean_motion": 2.00577688,
        "meta_eccentricity": 0.00322662,
        "meta_inclination": 55.1769,
        "meta_ra_of_asc_node": 281.4029,
        "meta_arg_of_pericenter": 162.2283,
        "meta_mean_anomaly": 15.3827,
        "meta_ephemeris_type": 0,
        "meta_classification_type": "U",
        "meta_norad_cat_id": 32384,
        "meta_element_set_no": 999,
        "meta_rev_at_epoch": 13189,
        "meta_bstar": 0,
        "meta_mean_motion_dot": -4.1e-07,
        "meta_mean_motion_ddot": 0,
        "tle_line1": "1 32384U 07062A   25352.80048718 -.00000041  00000+0  00000+0 0  9992",
        "tle_line2": "2 32384  55.1769 281.4029 0032266 162.2283  15.3827  2.00577688131895"
      },
      "geometry": {
        "type": "Point",
        "coordinates": [
          46.32748562264969,
          49.700611699592166
        ]
      }
    },
    {
      "type": "Feature",
      "properties": {
        "norad_id": 32711,
        "name": "GPS BIIRM-6 (PRN 07)",
        "group": "gps-ops",
        "lat": 29.49805352254688,
        "lon": -179.04763103530917,
        "alt_km": 20652.056228674468,
        "timestamp": "2025-12-19T04:59:48.564872+00:00",
        "meta_object_name": "GPS BIIRM-6 (PRN 07)",
        "meta_object_id": "2008-012A",
        "meta_epoch": "2025-12-18T15:45:34.322400",
        "meta_mean_motion": 2.00565916,
        "meta_eccentricity": 0.02026894,
        "meta_inclination": 54.4778,
        "meta_ra_of_asc_node": 157.1367,
        "meta_arg_of_pericenter": 245.0129,
        "meta_mean_anomaly": 112.867,
        "meta_ephemeris_type": 0,
        "meta_classification_type": "U",
        "meta_norad_cat_id": 32711,
        "meta_element_set_no": 999,
        "meta_rev_at_epoch": 13013,
        "meta_bstar": 0,
        "meta_mean_motion_dot": 7e-07,
        "meta_mean_motion_ddot": 0,
        "tle_line1": "1 32711U 08012A   25352.65664725  .00000070  00000+0  00000+0 0  9998",
        "tle_line2": "2 32711  54.4778 157.1367 0202689 245.0129 112.8670  2.00565916130138"
      },
      "geometry": {
        "type": "Point",
        "coordinates": [
          -179.04763103530917,
          29.49805352254688
        ]
      }
    },
    {
      "type": "Feature",
      "properties": {
        "norad_id": 35752,
        "name": "GPS BIIRM-8 (PRN 05)",
        "group": "gps-ops",
        "lat": 43.32260294053491,
        "lon": 73.8828392826327,
        "alt_km": 20053.099553044325,
        "timestamp": "2025-12-19T04:59:48.564883+00:00",
        "meta_object_name": "GPS BIIRM-8 (PRN 05)",
        "meta_object_id": "2009-043A",
        "meta_epoch": "2025-12-18T04:21:14.473728",
        "meta_mean_motion": 2.00565462,
        "meta_eccentricity": 0.00516833,
        "meta_inclination": 56.0947,
        "meta_ra_of_asc_node": 34.5684,
        "meta_arg_of_pericenter": 81.8123,
        "meta_mean_anomaly": 312.8651,
        "meta_ephemeris_type": 0,
        "meta_classification_type": "U",
        "meta_norad_cat_id": 35752,
        "meta_element_set_no": 999,
        "meta_rev_at_epoch": 11973,
        "meta_bstar": 0,
        "meta_mean_motion_dot": -7.2e-07,
        "meta_mean_motion_ddot": 0,
        "tle_line1": "1 35752U 09043A   25352.18141752 -.00000072  00000+0  00000+0 0  9992",
        "tle_line2": "2 35752  56.0947  34.5684 0051683  81.8123 312.8651  2.00565462119738"
      },
      "geometry": {
        "type": "Point",
        "coordinates": [
          73.8828392826327,
          43.32260294053491
        ]
      }
    },
    {
      "type": "Feature",
      "properties": {
        "norad_id": 36585,
        "name": "GPS BIIF-1  (PRN 25)",
        "group": "gps-ops",
        "lat": 3.6136007018623393,
        "lon": 33.22399579182161,
        "alt_km": 20296.214117470678,
        "timestamp": "2025-12-19T04:59:48.564895+00:00",
        "meta_object_name": "GPS BIIF-1  (PRN 25)",
        "meta_object_id": "2010-022A",
        "meta_epoch": "2025-12-18T07:00:57.218688",
        "meta_mean_motion": 2.00553566,
        "meta_eccentricity": 0.01263334,
        "meta_inclination": 54.2992,
        "meta_ra_of_asc_node": 215.8499,
        "meta_arg_of_pericenter": 65.1411,
        "meta_mean_anomaly": 167.812,
        "meta_ephemeris_type": 0,
        "meta_classification_type": "U",
        "meta_norad_cat_id": 36585,
        "meta_element_set_no": 999,
        "meta_rev_at_epoch": 11396,
        "meta_bstar": 0,
        "meta_mean_motion_dot": 8.3e-07,
        "meta_mean_motion_ddot": 0,
        "tle_line1": "1 36585U 10022A   25352.29232892  .00000083  00000+0  00000+0 0  9995",
        "tle_line2": "2 36585  54.2992 215.8499 0126333  65.1411 167.8120  2.00553566113961"
      },
      "geometry": {
        "type": "Point",
        "coordinates": [
          33.22399579182161,
          3.6136007018623393
        ]
      }
    }
  ]
}